[{"OBJECT_NAME":"YAOGAN-36 02B","OBJECT_ID":"2022-133B","EPOCH":"2026-03-09T22:42:31.775904","MEAN_MOTION":15.30199518,"ECCENTRICITY":0.00056841,"INCLINATION":34.9983,"RA_OF_ASC_NODE":22.5268,"ARG_OF_PERICENTER":273.0351,"MEAN_ANOMALY":86.9715,"EPHEMERIS_TYPE":0,"CLASSIFICATION_TYPE":"U","NORAD_CAT_ID":54043,"ELEMENT_SET_NO":999,"REV_AT_EPOCH":18962,"BSTAR":0.00051218814,"MEAN_MOTION_DOT":0.00015352,"MEAN_MOTION_DDOT":0},{"OBJECT_NAME":"STARLINK-35460","OBJECT_ID":"2025-253K","EPOCH":"2026-03-09T10:38:29.169888","MEAN_MOTION":15.27567867,"ECCENTRICITY":0.00014441,"INCLINATION":43.0041,"RA_OF_ASC_NODE":214.1724,"ARG_OF_PERICENTER":270.1905,"MEAN_ANOMALY":89.8781,"EPHEMERIS_TYPE":0,"CLASSIFICATION_TYPE":"U","NORAD_CAT_ID":66328,"ELEMENT_SET_NO":999,"REV_AT_EPOCH":2020,"BSTAR":0.00037033081,"MEAN_MOTION_DOT":9.939e-5,"MEAN_MOTION_DDOT":0}]
